COSMOS 2426 (717)       
1 29671U 06062B   19096.33493426  .00000027  00000-0  10000-3 0  9991
2 29671  65.1571 282.7231 0017238 158.2947  22.8637  2.13103033 95563
COSMOS 2433 (720)       
1 32275U 07052A   19095.76806144 -.00000038  00000-0  10000-3 0  9999
2 32275  65.8236  43.5586 0004544 283.9978 158.6768  2.13104372 89062
COSMOS 2432 (719)       
1 32276U 07052B   19095.72094971 -.00000038  00000-0  10000-3 0  9993
2 32276  65.8351  43.6421 0013153 328.6783  29.0989  2.13103846 89057
COSMOS 2434 (721)       
1 32393U 07065A   19095.74067850  .00000025  00000-0  00000+0 0  9995
2 32393  64.7548 281.4743 0005502  89.5134 219.6430  2.13102936 87767
COSMOS 2436 (723)       
1 32395U 07065C   19096.38551350  .00000026  00000-0  10000-3 0  9997
2 32395  64.7654 281.5048 0016968   7.0867 128.6941  2.13104312 87713
COSMOS 2456 (730)       
1 36111U 09070A   19095.69665494  .00000056  00000-0  00000+0 0  9991
2 36111  64.1959 161.1035 0005095 309.6678 138.6425  2.13102770 72431
COSMOS 2457 (733)       
1 36112U 09070B   19096.32865939  .00000057  00000-0  00000+0 0  9990
2 36112  64.1781 160.9848 0005330 177.0103 161.5875  2.13101492 72441
COSMOS 2459 (731)       
1 36400U 10007A   19095.73887841 -.00000040  00000-0  10000-3 0  9990
2 36400  65.7292  42.5857 0028184 347.9073 288.9134  2.13102211 70783
COSMOS 2461 (735)       
1 36401U 10007B   19096.34354463 -.00000037  00000-0  10000-3 0  9994
2 36401  65.7239  42.5367 0006479  44.3365 246.8903  2.13102139 70793
COSMOS 2460 (732)       
1 36402U 10007C   19096.15535737 -.00000038  00000-0  10000-3 0  9990
2 36402  65.7146  42.5097 0002469 317.5627 229.3575  2.13101541 70799
COSMOS 2464 (736)       
1 37139U 10041C   19095.55545321  .00000024  00000-0  00000-0 0  9999
2 37139  64.3586 281.1405 0026371  15.9025  17.9680  2.13100620 66850
COSMOS 2474 (742)       
1 37829U 11055A   19096.31447843  .00000057  00000-0  00000+0 0  9991
2 37829  64.5176 161.9242 0009433 248.3655 170.6953  2.13101808 58443
COSMOS 2476 (744)       
1 37867U 11064A   19096.06514911  .00000056  00000-0  00000+0 0  9995
2 37867  64.4977 161.9864 0019354 241.4505  32.4529  2.13101871 57784
COSMOS 2477 (745)       
1 37868U 11064B   19096.41160388  .00000057  00000-0  00000+0 0  9991
2 37868  64.5110 162.0315 0017501 244.8749 113.5555  2.13103421 57746
COSMOS 2475 (743)       
1 37869U 11064C   19096.10514288  .00000056  00000-0  00000+0 0  9999
2 37869  64.5142 162.0329 0021591 265.6527 174.6713  2.13101827 57759
COSMOS 2485 (747)       
1 39155U 13019A   19096.23428883  .00000057  00000-0  00000+0 0  9991
2 39155  64.6671 162.1544 0019877 236.8660 211.5567  2.13101823 46267
COSMOS 2492 (754)       
1 39620U 14012A   19096.29550716 -.00000037  00000-0  10000-3 0  9993
2 39620  65.6033  42.3474 0016464 325.6532 204.7873  2.13103321 39218
COSMOS 2500 (755)       
1 40001U 14032A   19095.66524824 -.00000041  00000-0  00000+0 0  9991
2 40001  65.5441  42.3173 0005862 231.6258  36.8798  2.13102713 37416
COSMOS 2501 (702K)      
1 40315U 14075A   19095.55240400  .00000023  00000-0  00000+0 0  9998
2 40315  64.0780 282.2477 0014569 203.7732 136.8071  2.13098514 33815
COSMOS 2514 (751)       
1 41330U 16008A   19096.27826644 -.00000038  00000-0  00000+0 0  9991
2 41330  65.3460  42.2773 0009637 231.3544 328.9720  2.13103078 24595
COSMOS 2516 (753)       
1 41554U 16032A   19095.43868127  .00000023  00000-0  00000+0 0  9998
2 41554  64.3014 282.2002 0010146 213.2428 313.6281  2.13101594 22182
COSMOS 2522 (752)       
1 42939U 17055A   19096.33174561  .00000025  00000-0  00000+0 0  9996
2 42939  64.5317 282.2185 0004967 249.4537 109.0392  2.13101911 11952
COSMOS 2527 (756)       
1 43508U 18053A   19095.96476639  .00000057  00000-0  00000+0 0  9992
2 43508  64.8309 161.9169 0007745 237.4029 230.5821  2.13102582  6242
COSMOS 2529 (757)       
1 43687U 18086A   19096.12580020  .00000025  00000-0  00000+0 0  9990
2 43687  64.7444 282.2284 0008021 280.7965 235.4146  2.13101937  3268
